SITRO-AIS 29            
1 59052U 24039B   24301.17136766  .00092294  00000+0  22913-2 0  9990
2 59052  97.4044 263.1384 0018308 101.5533 258.7770 15.39823705 36813
SITRO-AIS 30            
1 59053U 24039C   24301.18478727  .00092985  00000+0  23339-2 0  9998
2 59053  97.4045 263.1146 0018426 102.5167 257.8141 15.39484073 36808
SITRO-AIS 31            
1 59054U 24039D   24300.90108800  .00081534  00000+0  20323-2 0  9998
2 59054  97.4046 262.8836 0018170 103.3656 256.9616 15.39749387 36786
SITRO-AIS 33            
1 59055U 24039E   24301.14247468  .00085620  00000+0  21231-2 0  9999
2 59055  97.4046 263.1828 0017938 103.1136 257.2113 15.39894643 36810
SITRO-AIS 35            
1 59056U 24039F   24301.20263554  .00091916  00000+0  22762-2 0  9996
2 59056  97.4046 263.2504 0017744 102.8992 257.4237 15.39912158 36826
SITRO-AIS 32            
1 59057U 24039G   24301.15774483  .00092972  00000+0  23214-2 0  9995
2 59057  97.4051 263.1623 0018028 103.4191 256.9065 15.39651500 36811
SITRO-AIS 34            
1 59058U 24039H   24301.22675843  .00090978  00000+0  22497-2 0  9990
2 59058  97.4059 263.2725 0017773 101.9688   5.9903 15.39959839 36824
SITRO-AIS 36            
1 59059U 24039J   24301.19008813  .00095349  00000+0  23500-2 0  9997
2 59059  97.4047 263.2676 0017642 103.0474 257.2743 15.40045046 36820
SITRO-AIS 49            
1 59060U 24039K   24301.19938835  .00091932  00000+0  22837-2 0  9991
2 59060  97.4050 263.2570 0017671 102.5030 257.8194 15.39818637 36821
SITRO-AIS 50            
1 59061U 24039L   24301.16873273  .00093940  00000+0  22970-2 0  9992
2 59061  97.4047 263.2939 0017673 102.4631 257.8594 15.40291278 36827
SITRO-AIS 51            
1 59062U 24039M   24301.10296032  .00093114  00000+0  22789-2 0  9990
2 59062  97.4046 263.2281 0017628 103.0880 257.2335 15.40267510 36818
SITRO-AIS 52            
1 59063U 24039N   24301.15229344  .00099252  00000+0  24161-2 0  9993
2 59063  97.4046 263.3183 0017367 102.7117 257.6072 15.40410445 36820
SITRO-AIS 25            
1 59066U 24039R   24301.10597328  .00014210  00000+0  12969-2 0  9995
2 59066  95.3905 186.7874 0162659 248.3647 110.0181 14.85505968 35677
SITRO-AIS 26            
1 59067U 24039S   24301.17825086  .00015204  00000+0  13907-2 0  9995
2 59067  95.3906 186.8280 0162796 248.1772 110.2064 14.85395812 35688
SITRO-AIS 27            
1 59068U 24039T   24301.15127715  .00014600  00000+0  13287-2 0  9998
2 59068  95.3905 186.8584 0162285 247.9816 110.4098 14.85648577 35682
SITRO-AIS 28            
1 59071U 24039U   24301.14466405  .00014261  00000+0  12969-2 0  9992
2 59071  95.3906 186.8670 0162102 247.9600 110.4336 14.85698409 35686
GRBBETA                 
1 60237U 24128C   24300.95640903  .00010315  00000+0  86149-3 0  9990
2 60237  61.9928 144.1033 0022835 356.3760   3.7160 14.98819585 16339
OOV-CUBE (TUBSAT-30)    
1 60240U 24128F   24300.94644453  .00006837  00000+0  59429-3 0  9992
2 60240  61.9969 144.6462 0020957 350.3972   9.6713 14.97697597 16336
ROBUSTA-3A (MEDITERRAN*)
1 60243U 24128J   24300.94510945  .00016129  00000+0  13443-2 0  9993
2 60243  61.9906 144.5540 0020978 341.4406  18.5916 14.98628638 16337
BEIJING 1               
1 28890U 05043A   24301.13520595  .00001642  00000+0  33161-3 0  9998
2 28890  98.2169  63.1794 0014713 358.2105   1.9041 14.62690977 13183
HUANJING 1A (HJ-1A)     
1 33320U 08041A   24301.16550498  .00006107  00000+0  79093-3 0  9996
2 33320  97.6354 301.7752 0018444 303.3133  56.6313 14.81067617869883
HUANJING 1B (HJ-1B)     
1 33321U 08041B   24301.15469218  .00004599  00000+0  59225-3 0  9993
2 33321  97.6282 306.2413 0037517 347.0971  12.9278 14.81052726869908
YAOGAN-4                
1 33446U 08061A   24301.04433655  .00004350  00000+0  57077-3 0  9995
2 33446  97.8855 230.5221 0013699 212.7524 147.2840 14.80745407857062
DEIMOS-1                
1 35681U 09041A   24301.20268576  .00002878  00000+0  44672-3 0  9993
2 35681  97.6843 116.1431 0001225  25.3436 334.7833 14.73829371818757
UK-DMC 2                
1 35683U 09041C   24301.13353353  .00004203  00000+0  64563-3 0  9990
2 35683  97.8002  83.5579 0001405  84.5487 275.5883 14.74067001818449
DMC3-FM1                
1 40715U 15032A   24301.12486394  .00002502  00000+0  30478-3 0  9998
2 40715  97.7271 176.0624 0004727 207.1025 152.9944 14.84260302501140
DMC3-FM2                
1 40716U 15032B   24301.21453812  .00003107  00000+0  37688-3 0  9990
2 40716  97.7324 177.3076 0006427 216.2370 143.8410 14.84262644501157
DMC3-FM3                
1 40717U 15032C   24301.17988675  .00002894  00000+0  35222-3 0  9990
2 40717  97.7375 178.6120 0007908 214.7595 145.3104 14.84168466501159
NOAA 15                 
1 25338U 98030A   24301.15660687  .00000685  00000+0  30044-3 0  9992
2 25338  98.5593 325.4836 0009287 302.4019  57.6263 14.26764850376253
DMSP 5D-3 F16 (USA 172) 
1 28054U 03048A   24301.18613656  .00000640  00000+0  35940-3 0  9993
2 28054  99.0228 308.9182 0008035  45.9177  44.3394 14.14170093 84932
NOAA 18                 
1 28654U 05018A   24301.17156249  .00000698  00000+0  39467-3 0  9998
2 28654  98.8650  16.9878 0014848  52.2816 307.9700 14.13388256  1908
METEOSAT-9 (MSG-2)      
1 28912U 05049B   24300.99965876  .00000129  00000+0  00000+0 0  9998
2 28912   7.9891  59.7217 0002244 182.4300 199.2792  1.00274142 69082
EWS-G1 (GOES 13)        
1 29155U 06018A   24300.77107094 -.00000226  00000+0  00000+0 0  9990
2 29155   2.9678  83.6609 0062756 256.0543 308.2589  0.98833434 37332
DMSP 5D-3 F17 (USA 191) 
1 29522U 06050A   24301.17558508  .00000700  00000+0  38684-3 0  9998
2 29522  98.7447 309.0444 0009456 329.1164  30.9452 14.14630914927852
FENGYUN 3A              
1 32958U 08026A   24300.87496079  .00000617  00000+0  31454-3 0  9995
2 32958  98.6189 244.2730 0009733  56.4381 303.7724 14.19246269850633
NOAA 19                 
1 33591U 09005A   24301.14202552  .00000529  00000+0  30707-3 0  9991
2 33591  99.0316 358.2450 0012838 280.7491  79.2235 14.13169758810261
GOES 14                 
1 35491U 09033A   24300.96907684 -.00000068  00000+0  00000+0 0  9998
2 35491   0.1265  91.6594 0003613 102.3016  82.1658  1.00271719 56153
DMSP 5D-3 F18 (USA 210) 
1 35951U 09057A   24301.21149545  .00000903  00000+0  49523-3 0  9992
2 35951  98.8319 274.9050 0011523 145.6938 214.4981 14.14344317775020
EWS-G2 (GOES 15)        
1 36411U 10008A   24301.07428906  .00000035  00000+0  00000+0 0  9996
2 36411   0.2571 273.8459 0006926 321.5654 248.6324  1.00274502 53636
COMS 1                  
1 36744U 10032A   24300.87306858 -.00000344  00000+0  00000+0 0  9994
2 36744   3.2876  83.0326 0000903 153.6227 241.5345  1.00270552 45096
FENGYUN 3B              
1 37214U 10059A   24301.20111257  .00000406  00000+0  23429-3 0  9993
2 37214  99.0443 331.0790 0023147  80.2889   6.5949 14.14601850722917
SUOMI NPP               
1 37849U 11061A   24301.13032313  .00000472  00000+0  24449-3 0  9994
2 37849  98.7327 237.1738 0000755 138.7829 221.3404 14.19541194673589
FENGYUN 2F              
1 38049U 12002A   24300.96395090  .00000077  00000+0  00000+0 0  9991
2 38049   6.0670  72.6753 0002542 150.2048  25.5735  0.99136769 46869
METEOSAT-10 (MSG-3)     
1 38552U 12035B   24300.91920747 -.00000006  00000+0  00000+0 0  9997
2 38552   3.2651  61.6462 0001054 223.9229  81.1158  1.00271721 44852
METOP-B                 
1 38771U 12049A   24301.15169065  .00000558  00000+0  27418-3 0  9997
2 38771  98.6122 355.3111 0001420  90.0843 270.0497 14.21557368628294
INSAT-3D                
1 39216U 13038B   24300.87341611 -.00000341  00000+0  00000+0 0  9993
2 39216   0.3725  91.0014 0002217 142.6488 246.0754  1.00273316 41084
FENGYUN 3C              
1 39260U 13052A   24301.20880060  .00000492  00000+0  26834-3 0  9995
2 39260  98.4382 293.8794 0010180 310.5193  49.5095 14.16321706574010
METEOR-M 2              
1 40069U 14037A   24301.12212633  .00000649  00000+0  31779-3 0  9992
2 40069  98.4488 289.5456 0005430 347.4754  12.6288 14.21106322534367
HIMAWARI-8              
1 40267U 14060A   24300.94709611 -.00000278  00000+0  00000+0 0  9992
2 40267   0.0187 145.4537 0001163 101.0545 270.9237  1.00271277 36863
FENGYUN 2G              
1 40367U 14090A   24300.86253125 -.00000301  00000+0  00000+0 0  9998
2 40367   4.1131  80.0059 0001972 177.4286 188.2714  1.00279175 36000
METEOSAT-11 (MSG-4)     
1 40732U 15034A   24301.13545288  .00000062  00000+0  00000+0 0  9991
2 40732   1.7046  71.1065 0001110 162.9901 219.9201  1.00268391 34019
ELEKTRO-L 2             
1 41105U 15074A   24300.77315608 -.00000115  00000+0  00000+0 0  9990
2 41105   5.1757  77.8450 0003732 174.9135  46.7315  1.00271249 32506
INSAT-3DR               
1 41752U 16054A   24300.86238229 -.00000080  00000+0  00000+0 0  9991
2 41752   0.1613  91.0874 0013527 173.8320 155.2641  1.00272283 29812
HIMAWARI-9              
1 41836U 16064A   24300.62410374 -.00000278  00000+0  00000+0 0  9991
2 41836   0.0421 154.1755 0001047  71.3345 175.4069  1.00274440 29201
GOES 16                 
1 41866U 16071A   24300.90426403 -.00000250  00000+0  00000+0 0  9993
2 41866   0.0353 283.3608 0001134 359.9613   2.7811  1.00270465 29109
FENGYUN 4A              
1 41882U 16077A   24300.85710557 -.00000199  00000+0  00000+0 0  9999
2 41882   0.7908  85.7614 0009025 339.9653   4.7935  1.00279554 28926
CYGFM05                 
1 41884U 16078A   24300.91325000  .00025861  00000+0  82370-3 0  9990
2 41884  34.9630 184.6768 0012830 319.0909  40.8845 15.31541320436251
CYGFM04                 
1 41885U 16078B   24300.94903073  .00026785  00000+0  82583-3 0  9998
2 41885  34.9370 167.0808 0011317 333.4472  26.5664 15.32587629436520
